NORAD_CAT_ID,OBJECT_NAME,OBJECT_TYPE,EPOCH,MEAN_MOTION,ECCENTRICITY,INCLINATION,RA_OF_ASC_NODE,ARG_OF_PERICENTER,MEAN_ANOMALY,BSTAR,MEAN_MOTION_DOT,MEAN_MOTION_DDOT,TLE_LINE0,TLE_LINE1,TLE_LINE2,SEMIMAJOR_AXIS,PERIOD,APOGEE,PERIGEE,DECAYED
53937.0,STARLINK-4765,PAYLOAD,2023-04-10 04:51:30,15.10482608,0.0001201,53.2176,32.8238,92.4606,267.6525,0.00020312,3.091e-05,0.0,0 STARLINK-4765,1 53937U 22119BD  23100.20243732  .00003091  00000-0  20312-3 0  9995,2 53937  53.2176  32.8238 0001201  92.4606 267.6525 15.10482608 30988,6912.864,95.334,535.559,533.899,0.0
53937.0,STARLINK-4765,PAYLOAD,2023-04-11 04:40:43,15.1050015,0.0001066,53.2173,28.356,95.6068,264.5046,0.00059452,9.625e-05,0.0,0 STARLINK-4765,1 53937U 22119BD  23101.19495195  .00009625  00000-0  59452-3 0  9992,2 53937  53.2173  28.3560 0001066  95.6068 264.5046 15.10500150 31550,6912.811,95.333,535.413,533.939,0.0
53937.0,STARLINK-4765,PAYLOAD,2023-04-11 18:58:16,15.10473946,0.0001292,53.2188,25.6771,85.7051,274.4089,-8.5987e-05,-1.724e-05,0.0,0 STARLINK-4765,1 53937U 22119BD  23101.79047369 -.00001724  00000-0 -85987-4 0  9991,2 53937  53.2188  25.6771 0001292  85.7051 274.4089 15.10473946 31226,6912.891,95.334,535.649,533.862,0.0
53937.0,STARLINK-4765,PAYLOAD,2023-04-12 01:19:24,15.10475086,0.0001272,53.2184,24.486,85.8965,274.2173,1.1692e-06,-2.73e-06,0.0,0 STARLINK-4765,1 53937U 22119BD  23102.05514811 -.00000273  00000-0  11692-5 0  9992,2 53937  53.2184  24.4860 0001272  85.8965 274.2173 15.10475086 31680,6912.887,95.334,535.631,533.873,0.0
53937.0,STARLINK-4765,PAYLOAD,2023-04-13 04:19:12,15.10493262,0.0001447,53.2185,19.4234,90.458,269.6578,0.00054369,8.774e-05,0.0,0 STARLINK-4765,1 53937U 22119BD  23103.18000425  .00008774  00000-0  54369-3 0  9997,2 53937  53.2185  19.4234 0001447  90.4580 269.6578 15.10493262 31851,6912.832,95.333,535.697,533.696,0.0
53937.0,STARLINK-4765,PAYLOAD,2023-04-14 04:08:26,15.10494999,0.0001391,53.2184,14.9568,81.3469,278.7681,0.00090633,0.00014835,0.0,0 STARLINK-4765,1 53937U 22119BD  23104.17252833  .00014835  00000-0  90633-3 0  9998,2 53937  53.2184  14.9568 0001391  81.3469 278.7681 15.10494999 32005,6912.826,95.333,535.653,533.73,0.0
53937.0,STARLINK-4765,PAYLOAD,2023-04-15 02:22:23,15.10505214,0.0001088,53.2189,10.7902,96.2537,263.858,0.0014373,0.00023734,0.0,0 STARLINK-4765,1 53937U 22119BD  23105.09887864  .00023734  00000-0  14373-2 0  9992,2 53937  53.2189  10.7902 0001088  96.2537 263.8580 15.10505214 32141,6912.795,95.332,535.412,533.908,0.0
53937.0,STARLINK-4765,PAYLOAD,2023-04-15 21:25:47,15.10461142,0.0001249,53.2181,7.215,87.4879,272.6257,0.00057559,9.298e-05,0.0,0 STARLINK-4765,1 53937U 22119BD  23105.89290940  .00009298  00000-0  57559-3 0  9996,2 53937  53.2181   7.2150 0001249  87.4879 272.6257 15.10461142 31845,6912.93,95.335,535.658,533.931,0.0
53937.0,STARLINK-4765,PAYLOAD,2023-04-16 03:46:55,15.10468991,0.0001111,53.2179,6.0237,74.3269,285.7847,0.00025618,3.974e-05,0.0,0 STARLINK-4765,1 53937U 22119BD  23106.15758308  .00003974  00000-0  25618-3 0  9999,2 53937  53.2179   6.0237 0001111  74.3269 285.7847 15.10468991 32302,6912.906,95.335,535.539,534.003,0.0
53937.0,STARLINK-4765,PAYLOAD,2023-04-16 21:15:01,15.1048571,0.0001186,53.2187,2.7487,76.0398,284.0727,0.00067378,0.00010945,0.0,0 STARLINK-4765,1 53937U 22119BD  23106.88543251  .00010945  00000-0  67378-3 0  9993,2 53937  53.2187   2.7487 0001186  76.0398 284.0727 15.10485710 32414,6912.855,95.334,535.54,533.9,0.0
53937.0,STARLINK-4765,PAYLOAD,2023-04-17 02:00:51,15.10503348,0.0001096,53.2173,1.855,71.5265,288.5847,0.0011301,0.00018584,0.0,0 STARLINK-4765,1 53937U 22119BD  23107.08393264  .00018584  00000-0  11301-2 0  9994,2 53937  53.2173   1.8550 0001096  71.5265 288.5847 15.10503348 32020,6912.801,95.332,535.424,533.908,0.0
53937.0,STARLINK-4765,PAYLOAD,2023-04-17 16:18:24,15.10490106,0.0001594,53.2166,359.175,73.4639,286.6528,0.00047045,7.551e-05,0.0,0 STARLINK-4765,1 53937U 22119BD  23107.67944826  .00007551  00000-0  47045-3 0  9992,2 53937  53.2166 359.1750 0001594  73.4639 286.6528 15.10490106 32114,6912.841,95.333,535.808,533.604,0.0
53937.0,STARLINK-4765,PAYLOAD,2023-04-17 21:04:14,15.10492711,9.65e-05,53.2166,358.2819,61.9728,298.1362,0.00063752,0.00010341,0.0,0 STARLINK-4765,1 53937U 22119BD  23107.87795082  .00010341  00000-0  63752-3 0  9996,2 53937  53.2166 358.2819 0000965  61.9728 298.1362 15.10492711 32569,6912.833,95.333,535.365,534.031,0.0
53937.0,STARLINK-4765,PAYLOAD,2023-04-18 01:50:05,15.10489951,0.0001235,53.217,357.389,84.6771,275.4362,0.0010722,0.00017608,0.0,0 STARLINK-4765,1 53937U 22119BD  23108.07645531  .00017608  00000-0  10722-2 0  9993,2 53937  53.2170 357.3890 0001235  84.6771 275.4362 15.10489951 32597,6912.842,95.333,535.56,533.853,0.0
53937.0,STARLINK-4765,PAYLOAD,2023-04-18 16:07:48,15.10214452,0.0001513,53.2173,354.7079,134.5819,225.5297,-0.0040837,-0.00067157,0.0,0 STARLINK-4765,1 53937U 22119BD  23108.67209312 -.00067157  00000-0 -40837-2 0  9998,2 53937  53.2173 354.7079 0001513 134.5819 225.5297 15.10214452 32266,6913.682,95.351,536.593,534.501,0.0
53937.0,STARLINK-4765,PAYLOAD,2023-04-19 03:15:11,15.09636062,0.0002104,53.2171,352.6256,133.1027,227.0142,-0.0083586,-0.0013375,0.0,0 STARLINK-4765,1 53937U 22119BD  23109.13555107 -.00133750  00000-0 -83586-2 0  9997,2 53937  53.2171 352.6256 0002104 133.1027 227.0142 15.09636062 32338,6915.448,95.387,538.768,535.858,0.0
53937.0,STARLINK-4765,PAYLOAD,2023-04-19 14:00:01,15.08848346,0.0001461,53.2162,350.6141,91.0147,183.3744,-0.00036411,-6.079e-05,0.0,0 STARLINK-4765,1 53937U 22119BD  23109.58334491 -.00006079  00000-0 -36411-3 0  9996,2 53937  53.2162 350.6141 0001461  91.0147 183.3744 15.08848346  1303,6917.855,95.437,540.731,538.709,0.0
53937.0,STARLINK-4765,PAYLOAD,2023-04-19 22:00:00,15.08853229,0.00014,53.2162,349.1193,82.7713,203.2251,-0.0040647,-0.00064422,0.0,0 STARLINK-4765,1 53937U 22119BD  23109.91667824 -.00064422  00000-0 -40647-2 0  9993,2 53937  53.2162 349.1193 0001400  82.7713 203.2251 15.08853229  1303,6917.84,95.437,540.673,538.736,0.0
53937.0,STARLINK-4765,PAYLOAD,2023-04-20 14:00:01,15.08816795,0.0001399,53.2164,346.1248,84.4331,224.727,0.0030869,0.00049151,0.0,0 STARLINK-4765,1 53937U 22119BD  23110.58334491  .00049151  00000-0  30869-2 0  9994,2 53937  53.2164 346.1248 0001399  84.4331 224.7270 15.08816795  1301,6917.951,95.439,540.784,538.848,0.0
53937.0,STARLINK-4765,PAYLOAD,2023-04-20 16:00:00,15.08836434,0.0001423,53.2166,345.751,84.9344,317.1153,0.0014888,0.00023483,0.0,0 STARLINK-4765,1 53937U 22119BD  23110.66667824  .00023483  00000-0  14888-2 0  9995,2 53937  53.2166 345.7510 0001423  84.9344 317.1153 15.08836434 32568,6917.891,95.438,540.741,538.772,0.0
53937.0,STARLINK-4765,PAYLOAD,2023-04-20 22:00:00,15.08881797,0.0001386,53.2164,344.63,82.7291,238.0151,-0.0049491,-0.00078286,0.0,0 STARLINK-4765,1 53937U 22119BD  23110.91667824 -.00078286  00000-0 -49491-2 0  9994,2 53937  53.2164 344.6300 0001386  82.7291 238.0151 15.08881797  1305,6917.753,95.435,540.576,538.659,0.0
53937.0,STARLINK-4765,PAYLOAD,2023-04-21 06:00:00,15.08839425,0.0001306,53.2163,343.1332,84.2956,248.0551,-0.00081608,-0.00013252,0.0,0 STARLINK-4765,1 53937U 22119BD  23111.25001157 -.00013252  00000-0 -81608-3 0  9992,2 53937  53.2163 343.1332 0001306  84.2956 248.0551 15.08839425 32658,6917.882,95.438,540.651,538.844,0.0
53937.0,STARLINK-4765,PAYLOAD,2023-04-21 14:00:01,15.0882463,0.0001321,53.2166,341.6354,97.6058,246.3408,0.0038502,0.00061497,0.0,0 STARLINK-4765,1 53937U 22119BD  23111.58334491  .00061497  00000-0  38502-2 0  9994,2 53937  53.2166 341.6354 0001321  97.6058 246.3408 15.08824630  1308,6917.927,95.439,540.706,538.879,0.0
53937.0,STARLINK-4765,PAYLOAD,2023-04-21 22:00:00,15.08879207,0.0001327,53.2166,340.1406,92.1094,263.4384,-0.0059389,-0.00093678,0.0,0 STARLINK-4765,1 53937U 22119BD  23111.91667824 -.00093678  00000-0 -59389-2 0  9994,2 53937  53.2166 340.1406 0001327  92.1094 263.4384 15.08879207 32752,6917.761,95.435,540.544,538.708,0.0
53937.0,STARLINK-4765,PAYLOAD,2023-04-22 00:00:02,15.08840753,0.0001321,53.2167,339.7667,92.5941,355.9303,-0.0021825,-0.00034855,0.0,0 STARLINK-4765,1 53937U 22119BD  23112.00002315 -.00034855  00000-0 -21825-2 0  9999,2 53937  53.2167 339.7667 0001321  92.5941 355.9303 15.08840753  1304,6917.878,95.438,540.657,538.829,0.0
53937.0,STARLINK-4765,PAYLOAD,2023-04-22 14:00:01,15.08822676,0.0001282,53.2166,337.1461,108.5284,270.2063,0.0038604,0.00061659,0.0,0 STARLINK-4765,1 53937U 22119BD  23112.58334491  .00061659  00000-0  38604-2 0  9998,2 53937  53.2166 337.1461 0001282 108.5284 270.2063 15.08822676 32851,6917.933,95.439,540.685,538.911,0.0
53937.0,STARLINK-4765,PAYLOAD,2023-04-23 00:00:00,15.08841402,0.0001165,53.2166,335.2774,91.3252,31.9137,-0.0021133,-0.00033765,0.0,0 STARLINK-4765,1 53937U 22119BD  23113.00001157 -.00033765  00000-0 -21133-2 0  9994,2 53937  53.2166 335.2774 0001165  91.3252  31.9137 15.08841402  1309,6917.876,95.437,540.547,538.935,0.0
53937.0,STARLINK-4765,PAYLOAD,2023-04-23 02:38:09,15.08849793,0.0001283,53.2161,334.783,105.9155,254.1978,0.00050342,7.735e-05,0.0,0 STARLINK-4765,1 53937U 22119BD  23113.10983639  .00007735  00000-0  50342-3 0  9990,2 53937  53.2161 334.7830 0001283 105.9155 254.1978 15.08849793 33359,6917.85,95.437,540.603,538.828,0.0
53937.0,STARLINK-4765,PAYLOAD,2023-04-23 16:56:38,15.08842615,0.0002347,53.2175,332.1057,126.1433,233.9776,0.00029974,4.486e-05,0.0,0 STARLINK-4765,1 53937U 22119BD  23113.70599885  .00004486  00000-0  29974-3 0  9999,2 53937  53.2175 332.1057 0002347 126.1433 233.9776 15.08842615 33024,6917.872,95.437,541.361,538.114,0.0
53937.0,STARLINK-4765,PAYLOAD,2023-04-24 02:28:57,15.08886935,0.0001233,53.2163,330.3223,97.3173,262.7959,0.0028495,0.00045413,0.0,0 STARLINK-4765,1 53937U 22119BD  23114.10343935  .00045413  00000-0  28495-2 0  9998,2 53937  53.2163 330.3223 0001233  97.3173 262.7959 15.08886935 33081,6917.737,95.435,540.455,538.749,0.0
